ALOS (DAICHI)           
1 28931U 06002A   26055.84043027  .00001386  00000+0  24068-3 0  9997
2 28931  98.1196  11.8628 0001468  53.6816 306.4525 14.69761698 71597
H-2A R/B                
1 28932U 06002B   26055.87251824  .00008128  00000+0  41157-3 0  9996
2 28932  98.2387 201.7994 0052009 285.2648  74.2837 15.16114724 92493
RESURS-DK 1             
1 29228U 06021A   26055.90538655  .00002070  00000+0  12423-3 0  9994
2 29228  69.9313 270.0941 0002838 173.4781 186.6422 15.12653726 85595
CZ-4B R/B               
1 29507U 06046C   26055.54735131  .00004835  00000+0  24683-3 0  9991
2 29507  97.5623 100.4911 0032118 315.0764  44.7870 15.16749127 58055
CZ-2C R/B               
1 31114U 07010B   26055.34035200  .00000123  00000+0  75750-4 0  9996
2 31114  98.3974 169.2889 0058375 334.0400  25.7852 14.20241015977829
COSMO-SKYMED 1          
1 31598U 07023A   26055.96013613  .00002569  00000+0  23181-3 0  9994
2 31598  97.8881 246.8910 0001313  83.8686 276.2685 14.96427855 13007
COSMOS 2428             
1 31792U 07029A   26055.86239512  .00000176  00000+0  12020-3 0  9995
2 31792  70.9406 230.2678 0008369 290.8326  69.1898 14.12942196962281
SL-16 R/B               
1 31793U 07029B   26055.85737163 -.00000182  00000+0 -69651-4 0  9992
2 31793  70.9754 199.3567 0002471 280.6127 241.4154 14.14835837963550
KORONAS-FOTON           
1 33504U 09003A   26055.60074435  .00012369  00000+0  27968-3 0  9999
2 33504  82.4297 289.4831 0010076 195.8718 164.2215 15.42962560943723
CZ-2C R/B               
1 37731U 11030B   26055.44860906  .00001663  00000+0  21556-3 0  9998
2 37731  97.8522  12.9797 0053621  34.8280  78.5792 14.81162471788133
H-2A R/B                
1 38341U 12025E   26055.87889989  .00002935  00000+0  26923-3 0  9996
2 38341  98.4705  21.9039 0044760 356.5717   3.5188 14.95039629746306
SHIJIAN-16 (SJ-16)      
1 39358U 13057A   26055.95836834  .00000759  00000+0  77031-4 0  9990
2 39358  74.9715 209.1872 0016096 145.1631 215.0614 14.92278930669606
