CCSDS_OMM_VERS = 2.0
CREATION_DATE  = 
ORIGINATOR     = 

OBJECT_NAME    = ALOS (DAICHI)
OBJECT_ID      = 2006-002A
CENTER_NAME    = EARTH
REF_FRAME      = TEME
TIME_SYSTEM    = UTC
MEAN_ELEMENT_THEORY = SGP/SGP4

EPOCH          = 2026-02-24T20:10:13.175328
MEAN_MOTION    = 14.69761698
ECCENTRICITY   = .00014683
INCLINATION    = 98.1196
RA_OF_ASC_NODE = 11.8628
ARG_OF_PERICENTER = 53.6816
MEAN_ANOMALY   = 306.4525

EPHEMERIS_TYPE = 0
CLASSIFICATION_TYPE = U
NORAD_CAT_ID   = 28931
ELEMENT_SET_NO = 999
REV_AT_EPOCH   = 7159
BSTAR          = .24068136E-3
MEAN_MOTION_DOT = .1386E-4
MEAN_MOTION_DDOT = 0

CCSDS_OMM_VERS = 2.0
CREATION_DATE  = 
ORIGINATOR     = 

OBJECT_NAME    = H-2A R/B
OBJECT_ID      = 2006-002B
CENTER_NAME    = EARTH
REF_FRAME      = TEME
TIME_SYSTEM    = UTC
MEAN_ELEMENT_THEORY = SGP/SGP4

EPOCH          = 2026-02-24T20:56:25.575936
MEAN_MOTION    = 15.16114724
ECCENTRICITY   = .00520095
INCLINATION    = 98.2387
RA_OF_ASC_NODE = 201.7994
ARG_OF_PERICENTER = 285.2648
MEAN_ANOMALY   = 74.2837

EPHEMERIS_TYPE = 0
CLASSIFICATION_TYPE = U
NORAD_CAT_ID   = 28932
ELEMENT_SET_NO = 999
REV_AT_EPOCH   = 9249
BSTAR          = .41157148E-3
MEAN_MOTION_DOT = .8128E-4
MEAN_MOTION_DDOT = 0

CCSDS_OMM_VERS = 2.0
CREATION_DATE  = 
ORIGINATOR     = 

OBJECT_NAME    = RESURS-DK 1
OBJECT_ID      = 2006-021A
CENTER_NAME    = EARTH
REF_FRAME      = TEME
TIME_SYSTEM    = UTC
MEAN_ELEMENT_THEORY = SGP/SGP4

EPOCH          = 2026-02-24T21:43:45.397920
MEAN_MOTION    = 15.12653726
ECCENTRICITY   = .00028383
INCLINATION    = 69.9313
RA_OF_ASC_NODE = 270.0941
ARG_OF_PERICENTER = 173.4781
MEAN_ANOMALY   = 186.6422

EPHEMERIS_TYPE = 0
CLASSIFICATION_TYPE = U
NORAD_CAT_ID   = 29228
ELEMENT_SET_NO = 999
REV_AT_EPOCH   = 8559
BSTAR          = .12423226E-3
MEAN_MOTION_DOT = .207E-4
MEAN_MOTION_DDOT = 0

CCSDS_OMM_VERS = 2.0
CREATION_DATE  = 
ORIGINATOR     = 

OBJECT_NAME    = CZ-4B R/B
OBJECT_ID      = 2006-046C
CENTER_NAME    = EARTH
REF_FRAME      = TEME
TIME_SYSTEM    = UTC
MEAN_ELEMENT_THEORY = SGP/SGP4

EPOCH          = 2026-02-24T13:08:11.153184
MEAN_MOTION    = 15.16749127
ECCENTRICITY   = .0032118
INCLINATION    = 97.5623
RA_OF_ASC_NODE = 100.4911
ARG_OF_PERICENTER = 315.0764
MEAN_ANOMALY   = 44.7870

EPHEMERIS_TYPE = 0
CLASSIFICATION_TYPE = U
NORAD_CAT_ID   = 29507
ELEMENT_SET_NO = 999
REV_AT_EPOCH   = 5805
BSTAR          = .24683E-3
MEAN_MOTION_DOT = .4835E-4
MEAN_MOTION_DDOT = 0

CCSDS_OMM_VERS = 2.0
CREATION_DATE  = 
ORIGINATOR     = 

OBJECT_NAME    = CZ-2C R/B
OBJECT_ID      = 2007-010B
CENTER_NAME    = EARTH
REF_FRAME      = TEME
TIME_SYSTEM    = UTC
MEAN_ELEMENT_THEORY = SGP/SGP4

EPOCH          = 2026-02-24T08:10:06.412800
MEAN_MOTION    = 14.20241015
ECCENTRICITY   = .00583759
INCLINATION    = 98.3974
RA_OF_ASC_NODE = 169.2889
ARG_OF_PERICENTER = 334.0400
MEAN_ANOMALY   = 25.7852

EPHEMERIS_TYPE = 0
CLASSIFICATION_TYPE = U
NORAD_CAT_ID   = 31114
ELEMENT_SET_NO = 999
REV_AT_EPOCH   = 97782
BSTAR          = .75750042E-4
MEAN_MOTION_DOT = .123E-5
MEAN_MOTION_DDOT = 0

CCSDS_OMM_VERS = 2.0
CREATION_DATE  = 
ORIGINATOR     = 

OBJECT_NAME    = COSMO-SKYMED 1
OBJECT_ID      = 2007-023A
CENTER_NAME    = EARTH
REF_FRAME      = TEME
TIME_SYSTEM    = UTC
MEAN_ELEMENT_THEORY = SGP/SGP4

EPOCH          = 2026-02-24T23:02:35.761632
MEAN_MOTION    = 14.96427855
ECCENTRICITY   = .00013136
INCLINATION    = 97.8881
RA_OF_ASC_NODE = 246.8910
ARG_OF_PERICENTER = 83.8686
MEAN_ANOMALY   = 276.2685

EPHEMERIS_TYPE = 0
CLASSIFICATION_TYPE = U
NORAD_CAT_ID   = 31598
ELEMENT_SET_NO = 999
REV_AT_EPOCH   = 1300
BSTAR          = .23181257E-3
MEAN_MOTION_DOT = .2569E-4
MEAN_MOTION_DDOT = 0

CCSDS_OMM_VERS = 2.0
CREATION_DATE  = 
ORIGINATOR     = 

OBJECT_NAME    = COSMOS 2428
OBJECT_ID      = 2007-029A
CENTER_NAME    = EARTH
REF_FRAME      = TEME
TIME_SYSTEM    = UTC
MEAN_ELEMENT_THEORY = SGP/SGP4

EPOCH          = 2026-02-24T20:41:50.938368
MEAN_MOTION    = 14.12942196
ECCENTRICITY   = .00083698
INCLINATION    = 70.9406
RA_OF_ASC_NODE = 230.2678
ARG_OF_PERICENTER = 290.8326
MEAN_ANOMALY   = 69.1898

EPHEMERIS_TYPE = 0
CLASSIFICATION_TYPE = U
NORAD_CAT_ID   = 31792
ELEMENT_SET_NO = 999
REV_AT_EPOCH   = 96228
BSTAR          = .12019879E-3
MEAN_MOTION_DOT = .176E-5
MEAN_MOTION_DDOT = 0

CCSDS_OMM_VERS = 2.0
CREATION_DATE  = 
ORIGINATOR     = 

OBJECT_NAME    = SL-16 R/B
OBJECT_ID      = 2007-029B
CENTER_NAME    = EARTH
REF_FRAME      = TEME
TIME_SYSTEM    = UTC
MEAN_ELEMENT_THEORY = SGP/SGP4

EPOCH          = 2026-02-24T20:34:36.908832
MEAN_MOTION    = 14.14835837
ECCENTRICITY   = .00024717
INCLINATION    = 70.9754
RA_OF_ASC_NODE = 199.3567
ARG_OF_PERICENTER = 280.6127
MEAN_ANOMALY   = 241.4154

EPHEMERIS_TYPE = 0
CLASSIFICATION_TYPE = U
NORAD_CAT_ID   = 31793
ELEMENT_SET_NO = 999
REV_AT_EPOCH   = 96355
BSTAR          = -.69650961E-4
MEAN_MOTION_DOT = -.182E-5
MEAN_MOTION_DDOT = 0

CCSDS_OMM_VERS = 2.0
CREATION_DATE  = 
ORIGINATOR     = 

OBJECT_NAME    = KORONAS-FOTON
OBJECT_ID      = 2009-003A
CENTER_NAME    = EARTH
REF_FRAME      = TEME
TIME_SYSTEM    = UTC
MEAN_ELEMENT_THEORY = SGP/SGP4

EPOCH          = 2026-02-24T14:25:04.311840
MEAN_MOTION    = 15.42962560
ECCENTRICITY   = .0010076
INCLINATION    = 82.4297
RA_OF_ASC_NODE = 289.4831
ARG_OF_PERICENTER = 195.8718
MEAN_ANOMALY   = 164.2215

EPHEMERIS_TYPE = 0
CLASSIFICATION_TYPE = U
NORAD_CAT_ID   = 33504
ELEMENT_SET_NO = 999
REV_AT_EPOCH   = 94372
BSTAR          = .27968E-3
MEAN_MOTION_DOT = .12369E-3
MEAN_MOTION_DDOT = 0

CCSDS_OMM_VERS = 2.0
CREATION_DATE  = 
ORIGINATOR     = 

OBJECT_NAME    = CZ-2C R/B
OBJECT_ID      = 2011-030B
CENTER_NAME    = EARTH
REF_FRAME      = TEME
TIME_SYSTEM    = UTC
MEAN_ELEMENT_THEORY = SGP/SGP4

EPOCH          = 2026-02-24T10:45:59.822784
MEAN_MOTION    = 14.81162471
ECCENTRICITY   = .00536211
INCLINATION    = 97.8522
RA_OF_ASC_NODE = 12.9797
ARG_OF_PERICENTER = 34.8280
MEAN_ANOMALY   = 78.5792

EPHEMERIS_TYPE = 0
CLASSIFICATION_TYPE = U
NORAD_CAT_ID   = 37731
ELEMENT_SET_NO = 999
REV_AT_EPOCH   = 78813
BSTAR          = .21555626E-3
MEAN_MOTION_DOT = .1663E-4
MEAN_MOTION_DDOT = 0

CCSDS_OMM_VERS = 2.0
CREATION_DATE  = 
ORIGINATOR     = 

OBJECT_NAME    = H-2A R/B
OBJECT_ID      = 2012-025E
CENTER_NAME    = EARTH
REF_FRAME      = TEME
TIME_SYSTEM    = UTC
MEAN_ELEMENT_THEORY = SGP/SGP4

EPOCH          = 2026-02-24T21:05:36.950496
MEAN_MOTION    = 14.95039629
ECCENTRICITY   = .00447606
INCLINATION    = 98.4705
RA_OF_ASC_NODE = 21.9039
ARG_OF_PERICENTER = 356.5717
MEAN_ANOMALY   = 3.5188

EPHEMERIS_TYPE = 0
CLASSIFICATION_TYPE = U
NORAD_CAT_ID   = 38341
ELEMENT_SET_NO = 999
REV_AT_EPOCH   = 74630
BSTAR          = .2692304E-3
MEAN_MOTION_DOT = .2935E-4
MEAN_MOTION_DDOT = 0

CCSDS_OMM_VERS = 2.0
CREATION_DATE  = 
ORIGINATOR     = 

OBJECT_NAME    = SHIJIAN-16 (SJ-16)
OBJECT_ID      = 2013-057A
CENTER_NAME    = EARTH
REF_FRAME      = TEME
TIME_SYSTEM    = UTC
MEAN_ELEMENT_THEORY = SGP/SGP4

EPOCH          = 2026-02-24T23:00:03.024576
MEAN_MOTION    = 14.92278930
ECCENTRICITY   = .00160964
INCLINATION    = 74.9715
RA_OF_ASC_NODE = 209.1872
ARG_OF_PERICENTER = 145.1631
MEAN_ANOMALY   = 215.0614

EPHEMERIS_TYPE = 0
CLASSIFICATION_TYPE = U
NORAD_CAT_ID   = 39358
ELEMENT_SET_NO = 999
REV_AT_EPOCH   = 66960
BSTAR          = .7703099E-4
MEAN_MOTION_DOT = .759E-5
MEAN_MOTION_DDOT = 0

